OBJECT_NAME,OBJECT_ID,EPOCH,MEAN_MOTION,ECCENTRICITY,INCLINATION,RA_OF_ASC_NODE,ARG_OF_PERICENTER,MEAN_ANOMALY,EPHEMERIS_TYPE,CLASSIFICATION_TYPE,NORAD_CAT_ID,ELEMENT_SET_NO,REV_AT_EPOCH,BSTAR,MEAN_MOTION_DOT,MEAN_MOTION_DDOT
LAOSAT 1,2015-067A,2026-06-25T20:03:20.202336,1.00271978,.0002657,0.0504,219.3296,190.0874,293.8950,0,U,41034,999,3894,0,-.332E-5,0
TELSTAR 12V,2015-068A,2026-06-25T19:22:23.102112,1.00273320,.0002451,0.0171,331.1163,125.3087,93.1218,0,U,41036,999,3871,0,-.108E-5,0
ELEKTRO-L 2,2015-074A,2026-06-24T10:51:55.229184,1.00271170,.0000705,6.7126,70.4366,278.7793,71.8306,0,U,41105,999,3857,0,-.115E-5,0
COSMOS 2513,2015-075A,2026-06-25T19:49:29.030016,1.00270451,.0003465,0.0737,102.7210,333.9749,214.8893,0,U,41121,999,3863,0,-.127E-5,0
EXPRESS-AMU1,2015-082A,2026-06-25T19:36:57.998880,1.00271620,.0002958,0.0175,30.8959,64.0065,149.3637,0,U,41191,999,3835,0,.166E-5,0
GAOFEN-4,2015-083A,2026-06-25T19:56:50.822592,1.00271100,.0004035,0.3803,83.9151,114.0016,120.9663,0,U,41194,999,3861,0,-.324E-5,0
BELINTERSAT-1,2016-001A,2026-06-25T19:41:05.103744,1.00270271,.0001857,0.0024,308.6980,113.2948,198.7321,0,U,41238,999,3832,0,.118E-5,0
IRNSS-1E,2016-003A,2026-06-25T14:21:38.812032,1.00274592,.0019062,33.2517,59.6282,179.1130,2.2203,0,U,41241,999,3816,0,-.319E-5,0
EUTELSAT 9B,2016-005A,2026-06-25T19:29:13.742304,1.00269726,.0001781,0.0437,62.0838,2.2198,150.9581,0,U,41310,999,3820,0,.72E-6,0
SES-9,2016-013A,2026-06-25T09:41:29.101920,1.00272436,.0002423,0.0123,330.7857,116.8635,79.5646,0,U,41380,999,3752,0,-.335E-5,0
EUTELSAT 65 WEST A,2016-014A,2026-06-25T12:17:23.743104,1.00272112,.0002706,0.0469,352.2009,99.0767,301.5278,0,U,41382,999,3760,0,-.266E-5,0
IRNSS-1F,2016-015A,2026-06-25T19:35:50.606880,1.00271920,.0017446,5.3700,96.5859,184.4692,319.2578,0,U,41384,999,3775,0,.164E-5,0
BEIDOU-2 IGSO-6,2016-021A,2026-06-24T02:12:21.652992,1.00259092,.00575384,60.2358,37.9691,231.1257,128.7042,0,U,41434,999,3755,0,-.155E-5,0
IRNSS-1G,2016-027A,2026-06-25T08:32:51.614016,1.00276580,.0006269,5.2158,97.2878,2.9813,70.7125,0,U,41469,999,3726,0,-.329E-5,0
JCSAT-2B,2016-028A,2026-06-25T19:43:38.666784,1.00271062,.0001184,0.0182,8.6924,80.3623,274.8101,0,U,41471,999,3721,0,-.155E-5,0
THAICOM 8,2016-031A,2026-06-25T19:48:59.076864,1.00272262,.000383,0.0699,46.7300,18.5282,224.4336,0,U,41552,999,3680,0,-.111E-5,0
INTELSAT 31 (IS-31),2016-035A,2026-06-25T08:43:33.617856,1.00270776,.0000686,0.0133,298.7394,318.5498,52.0469,0,U,41581,999,3676,0,-.141E-5,0
BEIDOU-2 G7,2016-037A,2026-06-25T19:58:13.192896,1.00272872,.0006825,1.7419,69.4098,0.7604,253.9002,0,U,41586,999,697,0,-.344E-5,0
ABS-2A (MONGOLSAT-1),2016-038A,2026-06-24T07:52:07.661280,1.00269599,.00023011,0.0209,2.0142,26.2948,76.9601,0,U,41588,999,3678,0,0,0
EUTELSAT 117 WEST B,2016-038B,2026-06-25T08:37:06.613248,1.00271272,.000039,0.0126,150.0316,73.9936,61.7629,0,U,41589,999,3674,0,-.2E-7,0
BRISAT,2016-039A,2026-06-25T15:01:32.576736,1.00270828,.0002199,0.0189,323.1245,128.8057,197.7048,0,U,41591,999,3669,0,-.186E-5,0
ECHOSTAR 18,2016-039B,2026-06-25T13:59:12.064992,1.00275248,.0001876,0.0036,86.4329,8.8577,326.8628,0,U,41592,999,3670,0,-.272E-5,0
MUOS-5,2016-041A,2026-06-25T03:32:54.665088,1.00272999,.01979203,2.1858,301.8199,260.6421,18.8596,0,U,41622,999,3716,0,-.139E-5,0
TIANTONG-1 1,2016-048A,2026-06-25T13:04:53.210784,1.00271726,.0005891,3.8653,43.4917,48.0327,119.8062,0,U,41725,999,3635,0,-.311E-5,0
JCSAT-16,2016-050A,2026-06-25T20:07:19.818048,1.00271544,.0001268,0.0181,5.4102,96.5723,257.7724,0,U,41729,999,3615,0,-.24E-5,0
USA 270,2016-052A,2026-06-22T15:12:26.817408,0.99500873,.0000555,4.2102,77.1345,163.5272,57.8891,0,U,41744,999,2818,0,-.244E-5,0
USA 271,2016-052B,2026-06-23T01:13:22.841184,0.99834520,.0002049,4.1840,77.1777,291.6696,27.7147,0,U,41745,999,2797,0,-.272E-5,0
INTELSAT 36 (IS-36),2016-053A,2026-06-25T04:22:12.926784,1.00272521,.00020421,0.0128,20.9268,321.7510,64.7168,0,U,41747,999,3603,0,-.15E-6,0
INSAT-3DR,2016-054A,2026-06-25T19:47:44.198304,1.00272358,.0010089,0.1279,86.2391,187.1565,11.4656,0,U,41752,999,3590,0,-.66E-6,0
GSAT-18,2016-060A,2026-06-25T19:47:44.198304,1.00272144,.0005812,0.0797,93.8909,343.5502,207.4233,0,U,41793,999,3561,0,-.66E-6,0
SKY MUSTER 2 (NBN1B),2016-060B,2026-06-25T15:09:38.715840,1.00271404,.0001797,0.0102,13.0665,84.8900,188.0267,0,U,41794,999,3560,0,-.234E-5,0
HIMAWARI-9,2016-064A,2026-06-25T20:06:49.865760,1.00269145,.0001216,0.0246,33.3577,81.1631,241.9238,0,U,41836,999,3529,0,0,0
